OBJECT_NAME,OBJECT_ID,EPOCH,MEAN_MOTION,ECCENTRICITY,INCLINATION,RA_OF_ASC_NODE,ARG_OF_PERICENTER,MEAN_ANOMALY,EPHEMERIS_TYPE,CLASSIFICATION_TYPE,NORAD_CAT_ID,ELEMENT_SET_NO,REV_AT_EPOCH,BSTAR,MEAN_MOTION_DOT,MEAN_MOTION_DDOT
DUCHIFAT-1,2014-033M,2026-05-16T22:34:53.347872,15.58767609,.00060741,98.0501,191.8677,176.5379,183.5918,0,U,40021,999,65087,.88656471E-3,.68762E-3,0
NANOSATC-BR1,2014-033Q,2026-05-16T21:31:45.618528,15.30399957,.00017083,98.0741,166.5362,300.6204,59.4867,0,U,40024,999,64919,.49119161E-3,.14368E-3,0
QB50P1,2014-033R,2026-05-16T23:18:17.115552,15.17741337,.0007928,98.0972,145.9407,344.3743,15.7243,0,U,40025,999,64829,.34514653E-3,.6896E-4,0
DTUSAT-2,2014-033W,2026-05-16T22:14:51.670752,15.14580395,.00074664,98.0862,132.6817,355.6163,4.5000,0,U,40030,999,64795,.30936975E-3,.5638E-4,0
QB50P2,2014-033Y,2026-05-16T22:10:49.044864,15.14729103,.00057065,98.0751,131.8705,285.5578,74.5022,0,U,40032,999,64793,.29174061E-3,.5334E-4,0
PERSEUS-M1,2014-033AF,2026-05-16T14:10:42.040704,14.95518502,.0012784,97.9633,80.2103,48.1314,312.0994,0,U,40039,999,64591,.14092E-3,.1503E-4,0
POLYITAN-1,2014-033AJ,2026-05-16T18:42:32.399424,15.32106761,.0005539,98.0960,160.0968,248.8269,111.2379,0,U,40042,999,64878,.50182048E-3,.15489E-3,0
TIGRISAT,2014-033AK,2026-05-16T20:27:51.077664,14.85017607,.00496134,97.7796,287.5928,175.8470,184.3167,0,U,40043,999,64097,.16079572E-3,.1347E-4,0
CANX-4,2014-034C,2026-05-16T17:45:53.546976,14.81202045,.00140439,98.3163,10.8937,110.0844,250.1881,0,U,40055,999,63987,.82401836E-4,.585E-5,0
CANX-5,2014-034D,2026-05-16T20:58:42.657312,14.81219152,.00140459,98.3165,11.0742,109.8709,250.4017,0,U,40056,999,63070,.80821229E-4,.573E-5,0
GONETS-M 10,2014-036C,2026-05-16T22:04:02.723808,12.42945055,.00213336,82.5102,327.1026,208.3941,151.5978,0,U,40063,999,53836,.63721297E-3,.98E-6,0
METEOR-M 2,2014-037A,2026-05-16T23:06:17.382816,14.21452933,.00067119,98.5093,113.8101,120.1662,240.0182,0,U,40069,999,61488,.57466713E-4,.84E-6,0
DX1,2014-037C,2026-05-16T22:21:28.003968,14.89880672,.00079345,98.3849,96.7433,25.1268,335.0333,0,U,40071,999,64145,.91290444E-4,.815E-5,0
UKUBE-1,2014-037F,2026-05-16T22:59:59.889984,15.13011726,.00002961,98.4237,136.9642,112.9011,247.2248,0,U,40074,999,64383,.34360745E-3,.5991E-4,0
GAOFEN-2,2014-049A,2026-05-16T23:02:00.936384,14.80864367,.00069139,98.0131,201.1942,346.6651,13.4377,0,U,40118,999,63461,.66894194E-4,.463E-5,0
BRITE-PL2 (HEWELIUSZ),2014-049B,2026-05-16T18:31:25.394016,14.94464804,.00134565,97.9062,248.5388,208.8593,151.1884,0,U,40119,999,63675,.10814493E-3,.1108E-4,0
CBERS 4,2014-079A,2026-05-16T22:48:03.682368,14.35499704,.00020791,98.3557,194.7579,99.6138,260.5283,0,U,40336,999,59947,.42120656E-4,.79E-6,0
SMAP,2015-003A,2026-05-16T23:14:44.409984,14.63409238,.00012749,98.1284,144.5051,70.7364,289.3976,0,U,40376,999,60305,.55702398E-4,.241E-5,0
GONETS-M 11,2015-020A,2026-05-16T22:28:14.424384,12.42875372,.00174096,82.4888,50.4616,70.2353,290.0602,0,U,40552,999,50485,-.56325098E-3,-.68E-6,0
GONETS-M 12,2015-020B,2026-05-16T23:46:29.751168,12.42889737,.00163795,82.4921,51.5435,55.9031,304.3600,0,U,40553,999,50485,-.44610747E-3,-.52E-6,0
GONETS-M 13,2015-020C,2026-05-16T23:07:32.998368,12.42868823,.00148816,82.4884,50.1845,42.0656,318.1563,0,U,40554,999,50482,.29848257E-4,.14E-6,0
DMC3-FM1,2015-032A,2026-05-16T21:18:51.114240,14.85698550,.00061411,97.6509,3.2851,142.4093,217.7553,0,U,40715,999,58526,-.15286981E-4,-.184E-5,0
DMC3-FM2,2015-032B,2026-05-16T21:50:45.949920,14.85703425,.00065281,97.6561,4.8587,149.1377,211.0224,0,U,40716,999,58526,.31571371E-4,.222E-5,0
DMC3-FM3,2015-032C,2026-05-16T22:24:02.981376,14.85696600,.00057944,97.6615,6.6139,146.5911,213.5671,0,U,40717,999,58527,.10292167E-3,.841E-5,0
CARBONITE 1 (CBNT-1),2015-032D,2026-05-16T21:16:47.425728,14.83483440,.00155703,97.6494,316.2690,41.8837,318.3565,0,U,40718,999,58470,.97754133E-4,.754E-5,0
LILACSAT-2,2015-049K,2026-05-16T21:57:20.676960,15.50350826,.00072138,97.4680,172.5879,24.6722,335.4873,0,U,40908,999,59090,.2637266E-3,.14888E-3,0
