DUCHIFAT-1              
1 40021U 14033M   26136.94089523  .00068762  00000+0  88656-3 0  9990
2 40021  98.0501 191.8677 0006074 176.5379 183.5918 15.58767609650871
NANOSATC-BR1            
1 40024U 14033Q   26136.89705577  .00014368  00000+0  49119-3 0  9995
2 40024  98.0741 166.5362 0001708 300.6204  59.4867 15.30399957649190
QB50P1                  
1 40025U 14033R   26136.97103143  .00006896  00000+0  34515-3 0  9997
2 40025  98.0972 145.9407 0007928 344.3743  15.7243 15.17741337648292
DTUSAT-2                
1 40030U 14033W   26136.92698693  .00005638  00000+0  30937-3 0  9994
2 40030  98.0862 132.6817 0007466 355.6163   4.5000 15.14580395647953
QB50P2                  
1 40032U 14033Y   26136.92417876  .00005334  00000+0  29174-3 0  9992
2 40032  98.0751 131.8705 0005706 285.5578  74.5022 15.14729103647936
PERSEUS-M1              
1 40039U 14033AF  26136.59076436  .00001503  00000+0  14092-3 0  9992
2 40039  97.9633  80.2103 0012784  48.1314 312.0994 14.95518502645915
POLYITAN-1              
1 40042U 14033AJ  26136.77954166  .00015489  00000+0  50182-3 0  9999
2 40042  98.0960 160.0968 0005539 248.8269 111.2379 15.32106761648784
TIGRISAT                
1 40043U 14033AK  26136.85267451  .00001347  00000+0  16080-3 0  9990
2 40043  97.7796 287.5928 0049613 175.8470 184.3167 14.85017607640979
CANX-4                  
1 40055U 14034C   26136.74020309  .00000585  00000+0  82402-4 0  9996
2 40055  98.3163  10.8937 0014043 110.0844 250.1881 14.81202045639879
CANX-5                  
1 40056U 14034D   26136.87410483  .00000573  00000+0  80821-4 0  9997
2 40056  98.3165  11.0742 0014045 109.8709 250.4017 14.81219152630701
GONETS-M 10             
1 40063U 14036C   26136.91947597  .00000098  00000+0  63721-3 0  9994
2 40063  82.5102 327.1026 0021333 208.3941 151.5978 12.42945055538361
METEOR-M 2              
1 40069U 14037A   26136.96270119  .00000084  00000+0  57467-4 0  9991
2 40069  98.5093 113.8101 0006711 120.1662 240.0182 14.21452933614881
DX1                     
1 40071U 14037C   26136.93157412  .00000815  00000+0  91290-4 0  9995
2 40071  98.3849  96.7433 0007934  25.1268 335.0333 14.89880672641457
UKUBE-1                 
1 40074U 14037F   26136.95833206  .00005991  00000+0  34361-3 0  9997
2 40074  98.4237 136.9642 0000296 112.9011 247.2248 15.13011726643833
GAOFEN-2                
1 40118U 14049A   26136.95973306  .00000463  00000+0  66894-4 0  9991
2 40118  98.0131 201.1942 0006913 346.6651  13.4377 14.80864367634619
BRITE-PL2 (HEWELIUSZ)   
1 40119U 14049B   26136.77182169  .00001108  00000+0  10814-3 0  9998
2 40119  97.9062 248.5388 0013456 208.8593 151.1884 14.94464804636751
CBERS 4                 
1 40336U 14079A   26136.95004262  .00000079  00000+0  42121-4 0  9992
2 40336  98.3557 194.7579 0002079  99.6138 260.5283 14.35499704599477
SMAP                    
1 40376U 15003A   26136.96856956  .00000241  00000+0  55702-4 0  9990
2 40376  98.1284 144.5051 0001274  70.7364 289.3976 14.63409238603053
GONETS-M 11             
1 40552U 15020A   26136.93627806 -.00000068  00000+0 -56325-3 0  9992
2 40552  82.4888  50.4616 0017409  70.2353 290.0602 12.42875372504851
GONETS-M 12             
1 40553U 15020B   26136.99062212 -.00000052  00000+0 -44611-3 0  9991
2 40553  82.4921  51.5435 0016379  55.9031 304.3600 12.42889737504856
GONETS-M 13             
1 40554U 15020C   26136.96357637  .00000014  00000+0  29848-4 0  9999
2 40554  82.4884  50.1845 0014881  42.0656 318.1563 12.42868823504822
DMC3-FM1                
1 40715U 15032A   26136.88809160 -.00000184  00000+0 -15287-4 0  9997
2 40715  97.6509   3.2851 0006141 142.4093 217.7553 14.85698550585266
DMC3-FM2                
1 40716U 15032B   26136.91025405  .00000222  00000+0  31571-4 0  9999
2 40716  97.6561   4.8587 0006528 149.1377 211.0224 14.85703425585266
DMC3-FM3                
1 40717U 15032C   26136.93336784  .00000841  00000+0  10292-3 0  9990
2 40717  97.6615   6.6139 0005794 146.5911 213.5671 14.85696600585279
CARBONITE 1 (CBNT-1)    
1 40718U 15032D   26136.88666002  .00000754  00000+0  97754-4 0  9996
2 40718  97.6494 316.2690 0015570  41.8837 318.3565 14.83483440584701
LILACSAT-2              
1 40908U 15049K   26136.91482265  .00014888  00000+0  26373-3 0  9997
2 40908  97.4680 172.5879 0007213  24.6722 335.4873 15.50350826590903
